NORAD_CAT_ID,OBJECT_NAME,OBJECT_TYPE,EPOCH,MEAN_MOTION,ECCENTRICITY,INCLINATION,RA_OF_ASC_NODE,ARG_OF_PERICENTER,MEAN_ANOMALY,BSTAR,MEAN_MOTION_DOT,MEAN_MOTION_DDOT,TLE_LINE0,TLE_LINE1,TLE_LINE2,SEMIMAJOR_AXIS,PERIOD,APOGEE,PERIGEE,DECAYED
54085.0,STARLINK-5166,PAYLOAD,2023-01-15 13:21:32,15.08844093,0.000113,53.217,92.8019,90.323,269.7891,6.2784e-05,7.12e-06,0.0,0 STARLINK-5166,1 54085U 22136AL  23015.55662270  .00000712  00000-0  62784-4 0  9991,2 54085  53.2170  92.8019 0001130  90.3230 269.7891 15.08844093 13977,6917.868,95.437,540.515,538.951,0.0
54085.0,STARLINK-5166,PAYLOAD,2023-01-16 11:36:55,15.08863969,0.0001020999999999,53.2171,88.6392,100.2189,259.8918,0.00048231,7.401e-05,0.0,0 STARLINK-5166,1 54085U 22136AL  23016.48397133  .00007401  00000-0  48231-3 0  9999,2 54085  53.2171  88.6392 0001021 100.2189 259.8918 15.08863969 14118,6917.807,95.436,540.378,538.966,0.0
54085.0,STARLINK-5166,PAYLOAD,2023-01-16 21:09:15,15.08828276,0.0001802,53.2162,86.8532,98.9532,261.1664,-0.00016592,-2.927e-05,0.0,0 STARLINK-5166,1 54085U 22136AL  23016.88142905 -.00002927  00000-0 -16592-3 0  9993,2 54085  53.2162  86.8532 0001802  98.9532 261.1664 15.08828276 14178,6917.916,95.438,541.028,538.535,0.0
54085.0,STARLINK-5166,PAYLOAD,2023-01-17 05:06:12,15.08805006,0.0001048,53.2169,85.367,104.5384,255.5724,-0.0005005,-8.237e-05,0.0,0 STARLINK-5166,1 54085U 22136AL  23017.21264343 -.00008237  00000-0 -50050-3 0  9999,2 54085  53.2169  85.3670 0001048 104.5384 255.5724 15.08805006 14229,6917.986999999999,95.44,540.577,539.127,0.0
54085.0,STARLINK-5166,PAYLOAD,2023-01-17 13:03:08,15.0881573,0.0001072999999999,53.2167,83.8803,105.7709,254.3401,-0.00028268,-4.781e-05,0.0,0 STARLINK-5166,1 54085U 22136AL  23017.54384308 -.00004781  00000-0 -28268-3 0  9995,2 54085  53.2167  83.8803 0001073 105.7709 254.3401 15.08815730 13807,6917.955,95.439,540.562,539.077,0.0
54085.0,STARLINK-5166,PAYLOAD,2023-01-17 14:38:31,15.08812981,0.000166,53.2177,83.5879,118.5608,241.5551,-0.00029685,-5.006e-05,0.0,0 STARLINK-5166,1 54085U 22136AL  23017.61008804 -.00005006  00000-0 -29685-3 0  9992,2 54085  53.2177  83.5879 0001660 118.5608 241.5551 15.08812981 14282,6917.963000000001,95.439,540.976,538.68,0.0
54085.0,STARLINK-5166,PAYLOAD,2023-01-17 16:13:54,15.08820395,0.0001213,53.2166,83.287,112.915,247.197,-0.00019061,-3.318e-05,0.0,0 STARLINK-5166,1 54085U 22136AL  23017.67632230 -.00003318  00000-0 -19061-3 0  9995,2 54085  53.2166  83.2870 0001213 112.9150 247.1970 15.08820395 14298,6917.94,95.439,540.644,538.966,0.0
54085.0,STARLINK-5166,PAYLOAD,2023-01-18 08:07:45,15.08853981,9.86e-05,53.2165,80.3131,132.1026,228.005,0.0014663,0.00023134,0.0,0 STARLINK-5166,1 54085U 22136AL  23018.33872086  .00023134  00000-0  14663-2 0  9992,2 54085  53.2165  80.3131 0000986 132.1026 228.0050 15.08853981 14392,6917.838000000001,95.437,540.385,539.021,0.0
54085.0,STARLINK-5166,PAYLOAD,2023-01-18 12:53:53,15.08906955,0.0001408,53.217,79.4207,129.6932,230.4185,0.0028455999999999,0.00045375,0.0,0 STARLINK-5166,1 54085U 22136AL  23018.53742813  .00045375  00000-0  28456-2 0  9994,2 54085  53.2170  79.4207 0001408 129.6932 230.4185 15.08906955 13955,6917.676,95.433,540.515,538.567,0.0
54085.0,STARLINK-5166,PAYLOAD,2023-01-18 20:50:49,15.088742000000002,0.0002162,53.2169,77.9345,91.2764,268.8476,0.00078386,0.00012221,0.0,0 STARLINK-5166,1 54085U 22136AL  23018.86863271  .00012221  00000-0  78386-3 0  9994,2 54085  53.2169  77.9345 0002162  91.2764 268.8476 15.08874200 14477,6917.776,95.435,541.136,538.145,0.0
54085.0,STARLINK-5166,PAYLOAD,2023-01-19 04:47:45,15.08827955,0.0001268,53.2163,76.4474,104.3546,255.7586,-0.00098844,-0.00015979,0.0,0 STARLINK-5166,1 54085U 22136AL  23019.19983426 -.00015979  00000-0 -98844-3 0  9992,2 54085  53.2163  76.4474 0001268 104.3546 255.7586 15.08827955 14526,6917.917,95.438,540.659,538.905,0.0
54085.0,STARLINK-5166,PAYLOAD,2023-01-19 12:44:42,15.08819582,0.0001252,53.2162,74.9607,92.8445,267.269,0.0024176,0.00038376,0.0,0 STARLINK-5166,1 54085U 22136AL  23019.53104341  .00038376  00000-0  24176-2 0  9991,2 54085  53.2162  74.9607 0001252  92.8445 267.2690 15.08819582 14103,6917.943,95.439,540.674,538.942,0.0
54085.0,STARLINK-5166,PAYLOAD,2023-01-20 11:00:05,15.08876167,0.0001405,53.2163,70.7973,91.5159,268.5994,0.0021825,0.00034652,0.0,0 STARLINK-5166,1 54085U 22136AL  23020.45840060  .00034652  00000-0  21825-2 0  9990,2 54085  53.2163  70.7973 0001405  91.5159 268.5994 15.08876167 14712,6917.77,95.435,540.607,538.663,0.0
54085.0,STARLINK-5166,PAYLOAD,2023-01-20 20:32:24,15.08874014,0.0001818,53.2159,69.0134,94.9999,265.12,0.0017434,0.00027593,0.0,0 STARLINK-5166,1 54085U 22136AL  23020.85583844  .00027593  00000-0  17434-2 0  9995,2 54085  53.2159  69.0134 0001818  94.9999 265.1200 15.08874014 14772,6917.776,95.435,540.899,538.384,0.0
54085.0,STARLINK-5166,PAYLOAD,2023-01-21 02:53:56,15.08857831,0.0001821,53.216,67.824,98.2305,261.8893,0.00087061,0.00013602,0.0,0 STARLINK-5166,1 54085U 22136AL  23021.12079771  .00013602  00000-0  87061-3 0  9995,2 54085  53.2160  67.8240 0001821  98.2305 261.8893 15.08857831 14814,6917.826,95.436,540.951,538.431,0.0
54085.0,STARLINK-5166,PAYLOAD,2023-01-22 02:44:43,15.0887177,0.0001751,53.2161,63.364,100.3721,259.7469,0.0024408,0.00038806,0.0,0 STARLINK-5166,1 54085U 22136AL  23022.11439675  .00038806  00000-0  24408-2 0  9996,2 54085  53.2161  63.3640 0001751 100.3721 259.7469 15.08871770 14968,6917.783,95.436,540.86,538.437,0.0
54085.0,STARLINK-5166,PAYLOAD,2023-01-22 09:06:16,15.08864859,0.0001483,53.2161,62.1739,91.7608,268.3554,0.0014055,0.00022167,0.0,0 STARLINK-5166,1 54085U 22136AL  23022.37935409  .00022167  00000-0  14055-2 0  9990,2 54085  53.2161  62.1739 0001483  91.7608 268.3554 15.08864859 15000,6917.804,95.436,540.695,538.643,0.0
54085.0,STARLINK-5166,PAYLOAD,2023-01-23 02:35:31,15.088491199999998,0.0001564999999999,53.2161,58.9023,89.7947,270.3225,0.0014707,0.00023202,0.0,0 STARLINK-5166,1 54085U 22136AL  23023.10799895  .00023202  00000-0  14707-2 0  9994,2 54085  53.2161  58.9023 0001565  89.7947 270.3225 15.08849120 15117,6917.853,95.437,540.8,538.635,0.0
54085.0,STARLINK-5166,PAYLOAD,2023-01-24 05:37:04,15.0884414,0.0001476,53.2174,53.8483,75.6674,284.4482,0.00074288,0.00011556,0.0,0 STARLINK-5166,1 54085U 22136AL  23024.23408262  .00011556  00000-0  74288-3 0  9994,2 54085  53.2174  53.8483 0001476  75.6674 284.4482 15.08844140 15283,6917.868,95.437,540.754,538.712,0.0
54085.0,STARLINK-5166,PAYLOAD,2023-01-24 18:20:09,15.08838985,0.0001694,53.2178,51.468,83.6136,276.5049,-0.00011846,-2.173e-05,0.0,0 STARLINK-5166,1 54085U 22136AL  23024.76400284 -.00002173  00000-0 -11846-3 0  9996,2 54085  53.2178  51.4680 0001694  83.6136 276.5049 15.08838985 15364,6917.883000000001,95.438,540.92,538.577,0.0
54085.0,STARLINK-5166,PAYLOAD,2023-01-25 08:38:38,15.08838601,0.0001291999999999,53.2178,48.7929,93.8106,266.3034,0.00010442,1.374e-05,0.0,0 STARLINK-5166,1 54085U 22136AL  23025.36016302  .00001374  00000-0  10442-3 0  9998,2 54085  53.2178  48.7929 0001292  93.8106 266.3034 15.08838601 14986,6917.885,95.438,540.643,538.856,0.0
54085.0,STARLINK-5166,PAYLOAD,2023-01-26 08:29:24,15.08850947,0.0001227,53.2176,44.3326,100.998,259.115,0.00041124,6.265e-05,0.0,0 STARLINK-5166,1 54085U 22136AL  23026.35376094  .00006265  00000-0  41124-3 0  9990,2 54085  53.2176  44.3326 0001227 100.9980 259.1150 15.08850947 15601,6917.847,95.437,540.561,538.863,0.0
54085.0,STARLINK-5166,PAYLOAD,2023-01-27 01:58:39,15.08845152,0.0001714,53.2185,41.0608,115.1635,244.9535,0.00016615,2.358e-05,0.0,0 STARLINK-5166,1 54085U 22136AL  23027.08240164  .00002358  00000-0  16615-3 0  9995,2 54085  53.2185  41.0608 0001714 115.1635 244.9535 15.08845152 15717,6917.865,95.437,540.915,538.544,0.0
54085.0,STARLINK-5166,PAYLOAD,2023-01-27 09:55:35,15.08842502,0.0001189999999999,53.2173,39.5726,94.1564,265.9564,0.00011957,1.616e-05,0.0,0 STARLINK-5166,1 54085U 22136AL  23027.41360331  .00001616  00000-0  11957-3 0  9991,2 54085  53.2173  39.5726 0001190  94.1564 265.9564 15.08842502 15296,6917.8730000000005,95.437,540.561,538.915,0.0
54085.0,STARLINK-5166,PAYLOAD,2023-01-28 09:46:22,15.08846417,0.0001187,53.2176,35.1125,100.5849,259.5277,9.7312e-05,1.261e-05,0.0,0 STARLINK-5166,1 54085U 22136AL  23028.40720198  .00001261  00000-0  97312-4 0  9998,2 54085  53.2176  35.1125 0001187 100.5849 259.5277 15.08846417 15444,6917.861,95.437,540.547,538.905,0.0
54085.0,STARLINK-5166,PAYLOAD,2023-01-28 19:18:41,15.08839474,0.0001072,53.2185,33.3285,91.5472,268.5643,6.8874e-05,8.08e-06,0.0,0 STARLINK-5166,1 54085U 22136AL  23028.80464772  .00000808  00000-0  68874-4 0  9992,2 54085  53.2185  33.3285 0001072  91.5472 268.5643 15.08839474 15504,6917.882,95.438,540.489,539.005,0.0
54085.0,STARLINK-5166,PAYLOAD,2023-01-28 20:54:04,15.08837633,0.0001077,53.2185,33.0309,90.0155,270.0961,3.5569e-05,2.78e-06,0.0,0 STARLINK-5166,1 54085U 22136AL  23028.87088864  .00000278  00000-0  35569-4 0  9999,2 54085  53.2185  33.0309 0001077  90.0155 270.0961 15.08837633 15983,6917.888,95.438,540.498,539.008,0.0
54085.0,STARLINK-5166,PAYLOAD,2023-01-29 09:37:09,15.08844289,0.0001123,53.218,30.6516,90.5228,269.5893,7.631e-05,9.27e-06,0.0,0 STARLINK-5166,1 54085U 22136AL  23029.40080231  .00000927  00000-0  76310-4 0  9999,2 54085  53.2180  30.6516 0001123  90.5228 269.5893 15.08844289 16061,6917.867,95.437,540.509,538.955,0.0
54085.0,STARLINK-5166,PAYLOAD,2023-01-30 09:27:56,15.08843243,0.0001095,53.218,26.191,96.6511,263.4606,0.00010172,1.332e-05,0.0,0 STARLINK-5166,1 54085U 22136AL  23030.39440197  .00001332  00000-0  10172-3 0  9994,2 54085  53.2180  26.1910 0001095  96.6511 263.4606 15.08843243 15747,6917.87,95.437,540.493,538.978,0.0
54085.0,STARLINK-5166,PAYLOAD,2023-01-31 06:07:57,15.08840055,0.0001155,53.2179,22.3246,95.8062,264.3062,7.166e-05,8.53e-06,0.0,0 STARLINK-5166,1 54085U 22136AL  23031.25552541  .00000853  00000-0  71660-4 0  9994,2 54085  53.2179  22.3246 0001155  95.8062 264.3062 15.08840055 16345,6917.88,95.438,540.544,538.946,0.0
